[{"OBJECT_NAME":"TRANSPORTER-14 OBJECT AJ","OBJECT_ID":"2025-135AJ","EPOCH":"2026-03-09T23:01:26.659776","MEAN_MOTION":14.94645004,"ECCENTRICITY":8.275e-5,"INCLINATION":97.7608,"RA_OF_ASC_NODE":184.5717,"ARG_OF_PERICENTER":139.5374,"MEAN_ANOMALY":220.5908,"EPHEMERIS_TYPE":0,"CLASSIFICATION_TYPE":"U","NORAD_CAT_ID":64560,"ELEMENT_SET_NO":999,"REV_AT_EPOCH":3908,"BSTAR":0.00059250683,"MEAN_MOTION_DOT":6.366e-5,"MEAN_MOTION_DDOT":0},{"OBJECT_NAME":"OBJECT B","OBJECT_ID":"2025-274B","EPOCH":"2026-03-09T17:22:54.825024","MEAN_MOTION":14.92604325,"ECCENTRICITY":0.00115111,"INCLINATION":97.7427,"RA_OF_ASC_NODE":359.4041,"ARG_OF_PERICENTER":330.3521,"MEAN_ANOMALY":29.7045,"EPHEMERIS_TYPE":0,"CLASSIFICATION_TYPE":"U","NORAD_CAT_ID":66651,"ELEMENT_SET_NO":999,"REV_AT_EPOCH":1537,"BSTAR":0.00043239201,"MEAN_MOTION_DOT":4.4e-5,"MEAN_MOTION_DDOT":0}]
